{
"type": "FeatureCollection",
"name": "Malabe_Boundary",
"crs": { "type": "name", "properties": { "name": "urn:ogc:def:crs:OGC:1.3:CRS84" } },
"features": [
{ "type": "Feature", "properties": { "adm4_name": "Malabe North", "adm4_name1": "මාලඹේ උතුර", "adm4_name2": null, "adm4_name3": null, "adm4_pcode": "LK1109070", "adm3_name": "Kaduwela", "adm3_name1": "කඩුවෙල", "adm3_name2": "கடுவெலை", "adm3_name3": null, "adm3_pcode": "LK1109", "adm2_name": "Colombo", "adm2_name1": "කොළඹ දිස්ත්‍රික්ක", "adm2_name2": "கொழும்பு மாவட்டம்", "adm2_name3": null, "adm2_pcode": "LK11", "adm1_name": "Western", "adm1_name1": "බස්නාහිර පළාත", "adm1_name2": "மேல் மாகாணம்", "adm1_name3": null, "adm1_pcode": "LK1", "adm0_name": "Sri Lanka", "adm0_name1": "ශ්‍රී ලංකා", "adm0_name2": "இலங்கை", "adm0_name3": null, "adm0_pcode": "LK", "valid_on": "2022-08-16", "valid_to": null, "area_sqkm": 2.10731828, "version": "v03", "lang": "en", "lang1": "si", "lang2": "ta", "lang3": null, "adm4_ref": "None", "center_lat": 6.91158218, "center_lon": 79.9668838 }, "geometry": { "type": "Polygon", "coordinates": [ [ [ 79.982245517000194, 6.912315938000177 ], [ 79.981543856000144, 6.912413995 ], [ 79.98149278600016, 6.91242113200019 ], [ 79.981172352000101, 6.912448115000188 ], [ 79.981155558000125, 6.912447782000072 ], [ 79.980981618000158, 6.912507269000116 ], [ 79.981042307000109, 6.912729616000149 ], [ 79.981039956000188, 6.912745132000168 ], [ 79.981145252000033, 6.913021407000031 ], [ 79.981180170000073, 6.91323590200011 ], [ 79.981212318000075, 6.913458086 ], [ 79.981216960000097, 6.913818156000104 ], [ 79.980912513000192, 6.914015097000174 ], [ 79.980778595000118, 6.914197759 ], [ 79.980518713000151, 6.91434067800003 ], [ 79.980473565000125, 6.914353673000107 ], [ 79.980447611000102, 6.914368377000073 ], [ 79.980322981000086, 6.914450708000061 ], [ 79.980196074000162, 6.914462458000173 ], [ 79.980071379000037, 6.914165535 ], [ 79.979980942000111, 6.913888683000039 ], [ 79.979974018000064, 6.913880856000162 ], [ 79.979829626000026, 6.913774706000083 ], [ 79.979712482000139, 6.913782584000046 ], [ 79.979684997000049, 6.913787776000106 ], [ 79.979682791000073, 6.913789026000018 ], [ 79.979657897000152, 6.913795676000063 ], [ 79.979624858000136, 6.913802944000111 ], [ 79.979578785000172, 6.913811818000113 ], [ 79.979558150000116, 6.913814497000089 ], [ 79.979519321000055, 6.913821484000039 ], [ 79.979454510000096, 6.913835572000153 ], [ 79.979412238000123, 6.913844997000126 ], [ 79.979380827000114, 6.913851636000061 ], [ 79.979331223000088, 6.913862856000094 ], [ 79.979319003000171, 6.913866 ], [ 79.979313540000135, 6.913867141000026 ], [ 79.979292390000182, 6.913871561 ], [ 79.979241789000184, 6.913884136000092 ], [ 79.97916756800015, 6.913898479000125 ], [ 79.979093436000085, 6.913912462000098 ], [ 79.979060852000032, 6.913918375000151 ], [ 79.979031117000147, 6.913923235000027 ], [ 79.979017044000159, 6.913925536000136 ], [ 79.978991931999985, 6.913929736000114 ], [ 79.978967265, 6.913933862000135 ], [ 79.978936763000149, 6.913939146000189 ], [ 79.978924270000107, 6.913942198000086 ], [ 79.978913045000127, 6.913945344000183 ], [ 79.978909150999982, 6.913947147000044 ], [ 79.978899641000112, 6.913952828000106 ], [ 79.978880338000181, 6.913970700000164 ], [ 79.97887879100017, 6.913972318000106 ], [ 79.978862299000014, 6.91398956800009 ], [ 79.978838998000128, 6.914017108000053 ], [ 79.978804368000112, 6.914056023000171 ], [ 79.978772556000138, 6.914087346000031 ], [ 79.978751167000098, 6.91410747499998 ], [ 79.978722259000165, 6.914133107000168 ], [ 79.978700055000104, 6.914153504000183 ], [ 79.978647855000077, 6.914202427000021 ], [ 79.97861758200014, 6.914232759000072 ], [ 79.978577976000054, 6.914271123000049 ], [ 79.978553242000146, 6.914289799000187 ], [ 79.978546032000054, 6.914294092000091 ], [ 79.978532047000044, 6.914302422000048 ], [ 79.97848594300018, 6.914330556999971 ], [ 79.978441656000143, 6.914354265000156 ], [ 79.978379622000148, 6.914385445999983 ], [ 79.978320844000109, 6.91441672600007 ], [ 79.978294400000038, 6.914429792000135 ], [ 79.978265065000187, 6.914441408000187 ], [ 79.97821771200006, 6.914458599999989 ], [ 79.978203367000049, 6.914463732000058 ], [ 79.978146276000189, 6.914484159999972 ], [ 79.978047498000194, 6.914519259000144 ], [ 79.977983288000019, 6.914542160000167 ], [ 79.977964473000156, 6.914548870000033 ], [ 79.977942181000117, 6.91455675900005 ], [ 79.977922011000032, 6.914563899000086 ], [ 79.977915868000139, 6.914566091000097 ], [ 79.977826945000174, 6.914597829000058 ], [ 79.977781943000195, 6.914615568000045 ], [ 79.977707877000057, 6.914645374000031 ], [ 79.977596516000176, 6.914690517000111 ], [ 79.977581926000028, 6.914696432000142 ], [ 79.977539458000081, 6.91471453600002 ], [ 79.977467017000038, 6.91474579100003 ], [ 79.977462085000184, 6.914747685 ], [ 79.977415680000149, 6.914765507000084 ], [ 79.977326042000186, 6.9147999 ], [ 79.977225455000109, 6.914834634000044 ], [ 79.977183275000186, 6.914842611000097 ], [ 79.977160346000176, 6.914845598000056 ], [ 79.977153137000187, 6.914846539000052 ], [ 79.977146137000148, 6.914847426000051 ], [ 79.977119078000101, 6.914850859000069 ], [ 79.977112527000031, 6.914851689000102 ], [ 79.97710317800005, 6.914852875 ], [ 79.977100100000143, 6.914853955000126 ], [ 79.977056641000047, 6.914869524999972 ], [ 79.976983501000177, 6.91489360700001 ], [ 79.976968529000033, 6.91489853600018 ], [ 79.976966196000092, 6.914899304000073 ], [ 79.976802605000159, 6.91494957600014 ], [ 79.976717415, 6.914975927000114 ], [ 79.976488145000076, 6.915059082000141 ], [ 79.976465531000144, 6.915067284000088 ], [ 79.976365213000179, 6.915103104000025 ], [ 79.976266343000191, 6.91513919800019 ], [ 79.976224513000091, 6.915154137000115 ], [ 79.976160125000092, 6.915177712000173 ], [ 79.976074305999987, 6.915209134000122 ], [ 79.975992266000162, 6.915239418000112 ], [ 79.975955063000185, 6.915253150000012 ], [ 79.975860720000128, 6.915287804000059 ], [ 79.975646576000145, 6.915374703000055 ], [ 79.975462315000073, 6.915447908000147 ], [ 79.975386117000198, 6.915477258000067 ], [ 79.975289829000189, 6.915514349000034 ], [ 79.975175342000057, 6.915558919000034 ], [ 79.975170491000085, 6.91556080700019 ], [ 79.975051880000137, 6.91560618200009 ], [ 79.9749923, 6.915629319000175 ], [ 79.974936159000094, 6.915653458000122 ], [ 79.97479572300017, 6.915709285 ], [ 79.974668794000081, 6.915750395000032 ], [ 79.974643176000086, 6.915756229000181 ], [ 79.974617201000171, 6.915759530000173 ], [ 79.974582917000134, 6.915753596000059 ], [ 79.974573231000079, 6.915754062000076 ], [ 79.97455386900009, 6.915754992000132 ], [ 79.974485985000115, 6.915767538000125 ], [ 79.974257836000163, 6.915842296000108 ], [ 79.974084721000168, 6.915905753000118 ], [ 79.973932701000194, 6.915961921000132 ], [ 79.973654473000067, 6.91606082800007 ], [ 79.973499299000196, 6.916109755000093 ], [ 79.973365839000166, 6.91616016800009 ], [ 79.973207038000112, 6.916213250000055 ], [ 79.973041539000178, 6.916273935 ], [ 79.973030300000062, 6.916278056000067 ], [ 79.972869582000044, 6.916341986000077 ], [ 79.972785745000124, 6.916369694000025 ], [ 79.972734687000184, 6.916384257000061 ], [ 79.972678294000048, 6.916396459000055 ], [ 79.972639921000166, 6.916400192000083 ], [ 79.972567339000193, 6.916408479000154 ], [ 79.972592964000114, 6.916451564000056 ], [ 79.972601517000157, 6.916463451000084 ], [ 79.972653537000042, 6.916535760000102 ], [ 79.972734643000194, 6.916624422000154 ], [ 79.972833568999988, 6.916716820000147 ], [ 79.972895548000054, 6.916766034000148 ], [ 79.972998934000088, 6.916848123000079 ], [ 79.973120956000059, 6.916927087000033 ], [ 79.973228518000099, 6.916996081999969 ], [ 79.973303308000084, 6.917042750000121 ], [ 79.97336365100017, 6.917080403000114 ], [ 79.973327060000088, 6.917154308000136 ], [ 79.973312382000131, 6.917189026000131 ], [ 79.973124014000177, 6.917634565000128 ], [ 79.973068787000102, 6.917759437000029 ], [ 79.973012658000187, 6.917883313000118 ], [ 79.97296225000008, 6.917994812000018 ], [ 79.972862056000167, 6.918207133000124 ], [ 79.972808656000154, 6.918320295000058 ], [ 79.972786076000091, 6.918368144 ], [ 79.972425476000069, 6.918799321000051 ], [ 79.972164733000113, 6.918719615000043 ], [ 79.971981629000027, 6.918677886000069 ], [ 79.971927708000123, 6.91869988100018 ], [ 79.971161606000123, 6.918320415000039 ], [ 79.970951048000131, 6.91832803900013 ], [ 79.970800507000035, 6.91838068900006 ], [ 79.970635333000189, 6.918417335000072 ], [ 79.970430047000093, 6.918495190000044 ], [ 79.970198181000114, 6.918537653000101 ], [ 79.969790451000108, 6.918368860000044 ], [ 79.96982359000009, 6.918118378000145 ], [ 79.969845142000111, 6.917888561000041 ], [ 79.969840316000045, 6.91767846200014 ], [ 79.969869509000091, 6.917532868000023 ], [ 79.969726179000133, 6.917509522000046 ], [ 79.96948698500006, 6.917506942000159 ], [ 79.96898526800004, 6.917198780000092 ], [ 79.968906531000187, 6.917040745000065 ], [ 79.968663252, 6.91676505900017 ], [ 79.968602529000066, 6.916845655000088 ], [ 79.9685667010001, 6.916896051000151 ], [ 79.96851611000011, 6.916955553000093 ], [ 79.968469232000132, 6.917012350999983 ], [ 79.968381468000132, 6.917114922000053 ], [ 79.968363766000095, 6.91713723200013 ], [ 79.968363150000073, 6.917138010000031 ], [ 79.968330959000127, 6.917178584000169 ], [ 79.968277806000117, 6.917254089000096 ], [ 79.968254124000111, 6.917292388000021 ], [ 79.968214576000037, 6.917356619999964 ], [ 79.96817362400003, 6.917423131000078 ], [ 79.968173370000159, 6.91742354600018 ], [ 79.968130320000171, 6.917410904 ], [ 79.968051278000189, 6.917385993000039 ], [ 79.967946639000161, 6.91735525200005 ], [ 79.967885143000046, 6.917335346000186 ], [ 79.967850876000114, 6.91731955400013 ], [ 79.967810557000064, 6.917297151000128 ], [ 79.967796382000074, 6.917287014000067 ], [ 79.967767719000108, 6.917266514000175 ], [ 79.967681416000119, 6.917201625000018 ], [ 79.967595747000075, 6.917136465000169 ], [ 79.967525624000018, 6.917081006000103 ], [ 79.967494798000132, 6.917064046000121 ], [ 79.96746902700005, 6.917053874000146 ], [ 79.967449943000076, 6.917049139000028 ], [ 79.96740642900005, 6.917043912000054 ], [ 79.967343812000081, 6.917044439000165 ], [ 79.967299194000134, 6.917049516000134 ], [ 79.967290535000018, 6.917052484000067 ], [ 79.967286065, 6.917054016000179 ], [ 79.967266600000073, 6.917061126000021 ], [ 79.967210834000127, 6.917076765 ], [ 79.967153629000052, 6.917087608000088 ], [ 79.967135470000073, 6.917090354000152 ], [ 79.967127019000031, 6.917091631000176 ], [ 79.967069814000183, 6.917102657000044 ], [ 79.967045920000146, 6.917106323000155 ], [ 79.967032197000151, 6.917106029000138 ], [ 79.96714535000018, 6.9172537930001 ], [ 79.966962408000143, 6.917469230000052 ], [ 79.966749027000162, 6.917625295999983 ], [ 79.966312479000123, 6.917332225 ], [ 79.96608661800019, 6.917218440000113 ], [ 79.965698117000102, 6.917086616 ], [ 79.965342795000197, 6.91709435100006 ], [ 79.965157217000069, 6.917088733000128 ], [ 79.965015029000028, 6.917086102000155 ], [ 79.964826627000093, 6.917089178000083 ], [ 79.964600632000156, 6.917053278000083 ], [ 79.964479196000013, 6.917050295000138 ], [ 79.964312058000075, 6.917052385000147 ], [ 79.964185767000174, 6.917093941000189 ], [ 79.964019703000133, 6.917105468000159 ], [ 79.963922389000061, 6.917107396000119 ], [ 79.963789459000054, 6.917011058000185 ], [ 79.963704859000188, 6.917052708000085 ], [ 79.963536474000193, 6.917136467000148 ], [ 79.963291974000015, 6.917213481000147 ], [ 79.963022430000137, 6.917296354000143 ], [ 79.962751405000176, 6.917405553000037 ], [ 79.962482296000189, 6.917436779000127 ], [ 79.962335801000052, 6.917429383000069 ], [ 79.9621882510001, 6.917411584000092 ], [ 79.962071556000126, 6.91738497 ], [ 79.962001276000194, 6.917320862000054 ], [ 79.961935409000148, 6.917260932000033 ], [ 79.961852409000016, 6.917249778000041 ], [ 79.961744484000064, 6.917217490000041 ], [ 79.961512081000137, 6.91704619900014 ], [ 79.961376697000105, 6.916959451000082 ], [ 79.961245934000033, 6.916808864000132 ], [ 79.961137732000168, 6.916641368000114 ], [ 79.961039027000083, 6.916547235000053 ], [ 79.960956632000091, 6.916516177000176 ], [ 79.960871684000153, 6.91645874000011 ], [ 79.960838556000056, 6.916435961000104 ], [ 79.960828908000167, 6.916445568000086 ], [ 79.960790724000049, 6.916445502999977 ], [ 79.960712286000103, 6.916386050000142 ], [ 79.960590694000189, 6.916268655000124 ], [ 79.960417519000146, 6.916155510000067 ], [ 79.960322378000171, 6.91607405600007 ], [ 79.960251345000074, 6.915969857000107 ], [ 79.96019531800016, 6.915900281000177 ], [ 79.960074498000097, 6.91581635100016 ], [ 79.959928440999988, 6.915747425000177 ], [ 79.959735287000171, 6.915673455000046 ], [ 79.959433774000047, 6.915591737000057 ], [ 79.959445121000158, 6.915488506000145 ], [ 79.95950343100003, 6.914992891000054 ], [ 79.959569671000168, 6.914340343999982 ], [ 79.959630108000113, 6.913720325000099 ], [ 79.95963689600012, 6.913113611000028 ], [ 79.959689580000031, 6.91254716900005 ], [ 79.959765071000163, 6.911950338000111 ], [ 79.959844201000124, 6.911598304000108 ], [ 79.960010018999981, 6.910953584000083 ], [ 79.960309706000032, 6.91042393000015 ], [ 79.960582425000098, 6.909984185999974 ], [ 79.960937604000094, 6.909483336000108 ], [ 79.961398299000109, 6.908877399000176 ], [ 79.96175540500019, 6.908368897000173 ], [ 79.962262316000135, 6.907615660000147 ], [ 79.962785288000021, 6.906802673000072 ], [ 79.963265680000177, 6.905875221000088 ], [ 79.9633418680001, 6.905718014000115 ], [ 79.963345248000167, 6.90571951600009 ], [ 79.963400034000074, 6.905743875000041 ], [ 79.963414818000103, 6.905751487000146 ], [ 79.963489715000151, 6.905790053000146 ], [ 79.963531842000179, 6.905811540000059 ], [ 79.963550014000077, 6.905820810000137 ], [ 79.963693609000131, 6.905886877000171 ], [ 79.963751814000091, 6.905913656000166 ], [ 79.964007504000108, 6.906028116000016 ], [ 79.964033544000131, 6.906039734000103 ], [ 79.964037087000122, 6.906041492999975 ], [ 79.964041771000154, 6.906043817000182 ], [ 79.964097030000062, 6.906071314000087 ], [ 79.964267155000186, 6.906155964000163 ], [ 79.964307856000062, 6.906179828000177 ], [ 79.964430494999988, 6.906251730000065 ], [ 79.964453455000125, 6.906269855000062 ], [ 79.964466999000194, 6.906280547000051 ], [ 79.964510446000133, 6.905609883000182 ], [ 79.964533760000108, 6.905436628000132 ], [ 79.965139428000157, 6.904604701000153 ], [ 79.965170883000155, 6.904627633000075 ], [ 79.96526508200003, 6.904515486000093 ], [ 79.965360113000031, 6.904460037000035 ], [ 79.965390708000143, 6.904442186000097 ], [ 79.965540457000031, 6.904388910000137 ], [ 79.965571270000169, 6.904378049 ], [ 79.965607092000084, 6.904365423000058 ], [ 79.965712213000188, 6.904376995000121 ], [ 79.965830034000078, 6.904369419000034 ], [ 79.965861494000194, 6.904367686000171 ], [ 79.965868828000112, 6.90436873900012 ], [ 79.965936174000149, 6.90439103500006 ], [ 79.965980356000102, 6.904405662000102 ], [ 79.966220965000161, 6.904449746000182 ], [ 79.966277800000171, 6.904460375999975 ], [ 79.966439782000066, 6.904490671000133 ], [ 79.966464920000192, 6.904495373000145 ], [ 79.96658094300011, 6.904481644000157 ], [ 79.966797904000032, 6.904543591000049 ], [ 79.966813548000118, 6.904550128000153 ], [ 79.966814991000149, 6.904550739000115 ], [ 79.96682168600006, 6.904553578000048 ], [ 79.966832170000032, 6.904557890000092 ], [ 79.966832910000107, 6.904558197000028 ], [ 79.966843748000088, 6.904562658000089 ], [ 79.966850078000107, 6.90456520000015 ], [ 79.966852428000095, 6.904566109000143 ], [ 79.966854403000184, 6.904575426000122 ], [ 79.966851098000177, 6.904603632000146 ], [ 79.966831821000085, 6.904659028000083 ], [ 79.966814723000084, 6.904708336000112 ], [ 79.966803596000148, 6.904740420000053 ], [ 79.966792085000179, 6.904773618000149 ], [ 79.966803853000101, 6.904824184000063 ], [ 79.966996856000151, 6.904874877999987 ], [ 79.96709051900018, 6.904920701000151 ], [ 79.967190670000036, 6.904982087000064 ], [ 79.967221089000134, 6.905026174999989 ], [ 79.96726860299998, 6.905072009999969 ], [ 79.967355493000071, 6.905110859000104 ], [ 79.96743165100014, 6.905126722000091 ], [ 79.967551417000152, 6.905145664000031 ], [ 79.967559479000101, 6.905146940000122 ], [ 79.967561098000147, 6.905147195999973 ], [ 79.967649903000108, 6.905176644000107 ], [ 79.967730896000148, 6.905223439000167 ], [ 79.967803755000034, 6.905265339000096 ], [ 79.967902446000153, 6.905280064000124 ], [ 79.968027852000034, 6.90528244800015 ], [ 79.968156638000039, 6.905284822000169 ], [ 79.968173706000186, 6.905285136000032 ], [ 79.968271705000063, 6.905287478000048 ], [ 79.968328426000198, 6.905288835000079 ], [ 79.968385245000036, 6.905290969000077 ], [ 79.968530099000077, 6.905296410000062 ], [ 79.968675895999979, 6.905280471000083 ], [ 79.968764830000055, 6.905286048000107 ], [ 79.968836768000187, 6.905337258999964 ], [ 79.968902818000117, 6.905391895999969 ], [ 79.968963903000088, 6.905442682000114 ], [ 79.968995343000074, 6.905468822000103 ], [ 79.969084824000106, 6.90552585000006 ], [ 79.969173314000102, 6.905560948000129 ], [ 79.969181214000059, 6.90556408100008 ], [ 79.969322731000148, 6.905617218000145 ], [ 79.969412384000179, 6.905679219000035 ], [ 79.96945138600006, 6.905727281000111 ], [ 79.969480648000172, 6.905763338000156 ], [ 79.969558785000117, 6.905841054 ], [ 79.969657842000061, 6.905959586000051 ], [ 79.969727442000135, 6.906055281000079 ], [ 79.969775014000163, 6.906122547000109 ], [ 79.969789871000046, 6.906172377000189 ], [ 79.96980155600005, 6.906211568000117 ], [ 79.969821676000095, 6.906275904000097 ], [ 79.969837914000038, 6.906327823000083 ], [ 79.969861233000131, 6.90644939200007 ], [ 79.969861571000138, 6.906453972000122 ], [ 79.969869283000037, 6.906558366000013 ], [ 79.969884794, 6.906642576000081 ], [ 79.969899682000175, 6.906720727000049 ], [ 79.969950736000158, 6.906761323000069 ], [ 79.969993402000114, 6.90676982400015 ], [ 79.970015876000048, 6.906774301000041 ], [ 79.970079113, 6.906786901000032 ], [ 79.970083981000073, 6.90678787100012 ], [ 79.970090919000086, 6.906789253000056 ], [ 79.970094466000148, 6.906789959000093 ], [ 79.970115800000144, 6.906809951000184 ], [ 79.970171776000143, 6.90685967200011 ], [ 79.970205858000099, 6.907084754999971 ], [ 79.970183733000169, 6.907455862000063 ], [ 79.970171851000032, 6.907709597000178 ], [ 79.970115749, 6.908260088000134 ], [ 79.970155784000042, 6.908652517 ], [ 79.970715751000114, 6.908795576000045 ], [ 79.970980594000082, 6.908782164000172 ], [ 79.970983259000036, 6.908781783000052 ], [ 79.970983384000135, 6.908782675000111 ], [ 79.970991754000124, 6.908842457000105 ], [ 79.970997834000116, 6.908885874000077 ], [ 79.971011628000156, 6.908931670000129 ], [ 79.971033286000193, 6.909003574000053 ], [ 79.971055880999984, 6.909072425000147 ], [ 79.971098221000148, 6.909236705000069 ], [ 79.97110064300017, 6.909248103000095 ], [ 79.97110351300006, 6.909260787000107 ], [ 79.971120610000128, 6.909336350000046 ], [ 79.9711311800001, 6.909383065999975 ], [ 79.971149388000185, 6.909477770000024 ], [ 79.971153308000169, 6.909514579000131 ], [ 79.971146507000071, 6.90956996500006 ], [ 79.971144683000091, 6.909584824000149 ], [ 79.971124260000067, 6.909643423000148 ], [ 79.971212123000157, 6.909679962000041 ], [ 79.971273568000186, 6.909693230000073 ], [ 79.971397099000171, 6.909694395999963 ], [ 79.971421201000055, 6.909685250000109 ], [ 79.971864465000124, 6.909610587999964 ], [ 79.972147770000049, 6.909428919000163 ], [ 79.972462966000194, 6.909298496000076 ], [ 79.972807526000054, 6.909231568000052 ], [ 79.973028965000196, 6.909265245000086 ], [ 79.973313817000133, 6.909384478000106 ], [ 79.973412577000147, 6.909392126 ], [ 79.973412897000173, 6.909392523000122 ], [ 79.973423358000048, 6.909414332999972 ], [ 79.973432177000177, 6.909442469 ], [ 79.973440079000113, 6.909477657000082 ], [ 79.973447442000065, 6.909511579000025 ], [ 79.973458074000064, 6.909538091000115 ], [ 79.973473672000125, 6.909571122000102 ], [ 79.973492085000146, 6.909598100000039 ], [ 79.9735087090001, 6.909613770000078 ], [ 79.973528868000074, 6.909624836000091 ], [ 79.973535817000197, 6.909627920000162 ], [ 79.973543166000184, 6.909631182000112 ], [ 79.97355933900019, 6.909638360000145 ], [ 79.97357391900016, 6.909647729000142 ], [ 79.973590522000052, 6.909658397000101 ], [ 79.973592499000119, 6.909666357000049 ], [ 79.973591144000068, 6.909672532000116 ], [ 79.973588395000093, 6.909685068000101 ], [ 79.973583995000126, 6.909692233999976 ], [ 79.973582406000048, 6.909694824000042 ], [ 79.973580420000076, 6.909703572000012 ], [ 79.973575429000107, 6.909711792 ], [ 79.973545404000049, 6.909756139000024 ], [ 79.973560596000198, 6.909761862000039 ], [ 79.973564935000127, 6.909764220000056 ], [ 79.973586080000189, 6.909780984000065 ], [ 79.973612198000069, 6.909800107000137 ], [ 79.973639489000107, 6.909821132000161 ], [ 79.973666921000017, 6.909842585999968 ], [ 79.973724643000196, 6.910000918000151 ], [ 79.97383077600017, 6.910272583000108 ], [ 79.973830946000191, 6.910280497999963 ], [ 79.973857406000093, 6.910338630000183 ], [ 79.973859430000061, 6.910372452000161 ], [ 79.973860470000147, 6.910399310000059 ], [ 79.973862037, 6.910436115000152 ], [ 79.973863416000029, 6.910477441000012 ], [ 79.973863229000131, 6.91053368300004 ], [ 79.973862168000096, 6.91057319600003 ], [ 79.973860504000186, 6.910593901000084 ], [ 79.973857321000139, 6.910710995000159 ], [ 79.973853914000131, 6.910799604000147 ], [ 79.97385253900012, 6.910863530000086 ], [ 79.973851045000174, 6.910944817000143 ], [ 79.973851073000162, 6.910945344000083 ], [ 79.973856133000083, 6.911039771 ], [ 79.973860227000046, 6.911133638000081 ], [ 79.973866757000053, 6.911232483000163 ], [ 79.973867680000069, 6.911244009000029 ], [ 79.973872782000115, 6.911307724000096 ], [ 79.973881171000187, 6.911376913000026 ], [ 79.973882988000071, 6.911386643000128 ], [ 79.973889600000064, 6.911422048000134 ], [ 79.973909756000126, 6.911542888000156 ], [ 79.97392664900002, 6.91161281400008 ], [ 79.973963113000195, 6.911613870000167 ], [ 79.974074155000153, 6.911613449000072 ], [ 79.974078752000082, 6.911613432000138 ], [ 79.974196108000058, 6.911614624000038 ], [ 79.974299532000089, 6.911614527000154 ], [ 79.974394450000091, 6.911614686000064 ], [ 79.974444584000196, 6.911611606000179 ], [ 79.974490732000106, 6.911610598999971 ], [ 79.974575162000122, 6.911605226000177 ], [ 79.974642403000132, 6.911598827000091 ], [ 79.974733262000086, 6.911591747000045 ], [ 79.974820685000111, 6.911583123000014 ], [ 79.974848096000187, 6.911581235000028 ], [ 79.974914256000147, 6.911576679 ], [ 79.975015603000088, 6.911574680000115 ], [ 79.975137122000092, 6.911575427000116 ], [ 79.975272392000079, 6.911577191000049 ], [ 79.975401590000104, 6.911585185000035 ], [ 79.975408063000032, 6.911585794000189 ], [ 79.975592574000132, 6.911603139000078 ], [ 79.975738413000045, 6.911616044000027 ], [ 79.975742463000188, 6.911616273000107 ], [ 79.975778452000043, 6.91161831200003 ], [ 79.975860103000116, 6.911622939000154 ], [ 79.975949323000066, 6.911621189000186 ], [ 79.975951217000045, 6.91162123700019 ], [ 79.976077534000126, 6.911624390000156 ], [ 79.976217151000185, 6.911624715000073 ], [ 79.976331206000111, 6.911622465000107 ], [ 79.976394596000034, 6.911621216000071 ], [ 79.976536824000107, 6.911619250000115 ], [ 79.976756339000019, 6.911619520000102 ], [ 79.976809255000148, 6.911619586000143 ], [ 79.977047213000105, 6.911619879000057 ], [ 79.977158601000099, 6.911640837 ], [ 79.977505718000145, 6.911706148000178 ], [ 79.977830612000048, 6.910926193000023 ], [ 79.977856082000187, 6.910894228000132 ], [ 79.978314160000082, 6.910518676000152 ], [ 79.978675412000086, 6.910150048000048 ], [ 79.978702292000037, 6.910101427000029 ], [ 79.978959408000151, 6.909952908000037 ], [ 79.979000788, 6.90996748900011 ], [ 79.979040420000103, 6.9099665600001 ], [ 79.979041237000104, 6.909966108999981 ], [ 79.979063237000162, 6.909958550000169 ], [ 79.979149354000072, 6.909870058000138 ], [ 79.979157594000014, 6.909861592000141 ], [ 79.979190647, 6.909845553000139 ], [ 79.979263711000044, 6.909819905000177 ], [ 79.979335934000062, 6.90981753900013 ], [ 79.979347775000065, 6.909817150000038 ], [ 79.979455783000105, 6.90983532600012 ], [ 79.979649011000106, 6.909916578999969 ], [ 79.979966606000175, 6.910081861000151 ], [ 79.980044880000094, 6.910121755000091 ], [ 79.980095947000166, 6.910147782000024 ], [ 79.980098148000081, 6.910148905000028 ], [ 79.980238080000106, 6.910231152000165 ], [ 79.980333049000023, 6.91030871300012 ], [ 79.980402363999985, 6.910368711000103 ], [ 79.980428191000101, 6.910391068000081 ], [ 79.980436523000094, 6.910399226000038 ], [ 79.980482727000151, 6.910444473000155 ], [ 79.980486187999986, 6.91044786100008 ], [ 79.980529721000153, 6.910509293000189 ], [ 79.980544502000043, 6.910530152000035 ], [ 79.980557736000094, 6.910570956000015 ], [ 79.980571382000107, 6.910620251000125 ], [ 79.980583649000152, 6.910664557000075 ], [ 79.980602167000086, 6.910731443000088 ], [ 79.98060289600005, 6.91075100400019 ], [ 79.980607362000114, 6.910870793000072 ], [ 79.980609924000134, 6.910908414000062 ], [ 79.980625197000052, 6.910920738000016 ], [ 79.980640656000162, 6.9109206010001 ], [ 79.98064247700006, 6.910920585000099 ], [ 79.98069429200018, 6.910929427000099 ], [ 79.98071846300013, 6.91093355300012 ], [ 79.98076197600011, 6.910950397000079 ], [ 79.980785559000196, 6.910959525000123 ], [ 79.980820028000096, 6.910983244000022 ], [ 79.981023735000178, 6.910856783000156 ], [ 79.981112467000059, 6.910766018 ], [ 79.981175053000072, 6.910562762999973 ], [ 79.981511116000092, 6.910457744999974 ], [ 79.981582602000117, 6.910663307000107 ], [ 79.981600084000149, 6.910713575000045 ], [ 79.981754813000066, 6.911126213000045 ], [ 79.981920204000176, 6.911571004 ], [ 79.982092273000092, 6.911950711999964 ], [ 79.982245517000194, 6.912315938000177 ] ] ] } },
{ "type": "Feature", "properties": { "adm4_name": "Malabe East", "adm4_name1": "මාලඹේ නැගෙනහිර", "adm4_name2": null, "adm4_name3": null, "adm4_pcode": "LK1109125", "adm3_name": "Kaduwela", "adm3_name1": "කඩුවෙල", "adm3_name2": "கடுவெலை", "adm3_name3": null, "adm3_pcode": "LK1109", "adm2_name": "Colombo", "adm2_name1": "කොළඹ දිස්ත්‍රික්ක", "adm2_name2": "கொழும்பு மாவட்டம்", "adm2_name3": null, "adm2_pcode": "LK11", "adm1_name": "Western", "adm1_name1": "බස්නාහිර පළාත", "adm1_name2": "மேல் மாகாணம்", "adm1_name3": null, "adm1_pcode": "LK1", "adm0_name": "Sri Lanka", "adm0_name1": "ශ්‍රී ලංකා", "adm0_name2": "இலங்கை", "adm0_name3": null, "adm0_pcode": "LK", "valid_on": "2022-08-16", "valid_to": null, "area_sqkm": 2.21978672, "version": "v03", "lang": "en", "lang1": "si", "lang2": "ta", "lang3": null, "adm4_ref": "None", "center_lat": 6.90337039, "center_lon": 79.97212568 }, "geometry": { "type": "Polygon", "coordinates": [ [ [ 79.981511116000092, 6.910457744999974 ], [ 79.981175053000072, 6.910562762999973 ], [ 79.981112467000059, 6.910766018 ], [ 79.981023735000178, 6.910856783000156 ], [ 79.980820028000096, 6.910983244000022 ], [ 79.980785559000196, 6.910959525000123 ], [ 79.98076197600011, 6.910950397000079 ], [ 79.98071846300013, 6.91093355300012 ], [ 79.98069429200018, 6.910929427000099 ], [ 79.98064247700006, 6.910920585000099 ], [ 79.980640656000162, 6.9109206010001 ], [ 79.980625197000052, 6.910920738000016 ], [ 79.980609924000134, 6.910908414000062 ], [ 79.980607362000114, 6.910870793000072 ], [ 79.98060289600005, 6.91075100400019 ], [ 79.980602167000086, 6.910731443000088 ], [ 79.980583649000152, 6.910664557000075 ], [ 79.980571382000107, 6.910620251000125 ], [ 79.980557736000094, 6.910570956000015 ], [ 79.980544502000043, 6.910530152000035 ], [ 79.980529721000153, 6.910509293000189 ], [ 79.980486187999986, 6.91044786100008 ], [ 79.980482727000151, 6.910444473000155 ], [ 79.980436523000094, 6.910399226000038 ], [ 79.980428191000101, 6.910391068000081 ], [ 79.980402363999985, 6.910368711000103 ], [ 79.980333049000023, 6.91030871300012 ], [ 79.980238080000106, 6.910231152000165 ], [ 79.980098148000081, 6.910148905000028 ], [ 79.980095947000166, 6.910147782000024 ], [ 79.980044880000094, 6.910121755000091 ], [ 79.979966606000175, 6.910081861000151 ], [ 79.979649011000106, 6.909916578999969 ], [ 79.979455783000105, 6.90983532600012 ], [ 79.979347775000065, 6.909817150000038 ], [ 79.979335934000062, 6.90981753900013 ], [ 79.979263711000044, 6.909819905000177 ], [ 79.979190647, 6.909845553000139 ], [ 79.979157594000014, 6.909861592000141 ], [ 79.979149354000072, 6.909870058000138 ], [ 79.979063237000162, 6.909958550000169 ], [ 79.979041237000104, 6.909966108999981 ], [ 79.979040420000103, 6.9099665600001 ], [ 79.979000788, 6.90996748900011 ], [ 79.978959408000151, 6.909952908000037 ], [ 79.978702292000037, 6.910101427000029 ], [ 79.978675412000086, 6.910150048000048 ], [ 79.978314160000082, 6.910518676000152 ], [ 79.977856082000187, 6.910894228000132 ], [ 79.977830612000048, 6.910926193000023 ], [ 79.977505718000145, 6.911706148000178 ], [ 79.977158601000099, 6.911640837 ], [ 79.977047213000105, 6.911619879000057 ], [ 79.976809255000148, 6.911619586000143 ], [ 79.976756339000019, 6.911619520000102 ], [ 79.976536824000107, 6.911619250000115 ], [ 79.976394596000034, 6.911621216000071 ], [ 79.976331206000111, 6.911622465000107 ], [ 79.976217151000185, 6.911624715000073 ], [ 79.976077534000126, 6.911624390000156 ], [ 79.975951217000045, 6.91162123700019 ], [ 79.975949323000066, 6.911621189000186 ], [ 79.975860103000116, 6.911622939000154 ], [ 79.975778452000043, 6.91161831200003 ], [ 79.975742463000188, 6.911616273000107 ], [ 79.975738413000045, 6.911616044000027 ], [ 79.975592574000132, 6.911603139000078 ], [ 79.975408063000032, 6.911585794000189 ], [ 79.975401590000104, 6.911585185000035 ], [ 79.975272392000079, 6.911577191000049 ], [ 79.975137122000092, 6.911575427000116 ], [ 79.975015603000088, 6.911574680000115 ], [ 79.974914256000147, 6.911576679 ], [ 79.974848096000187, 6.911581235000028 ], [ 79.974820685000111, 6.911583123000014 ], [ 79.974733262000086, 6.911591747000045 ], [ 79.974642403000132, 6.911598827000091 ], [ 79.974575162000122, 6.911605226000177 ], [ 79.974490732000106, 6.911610598999971 ], [ 79.974444584000196, 6.911611606000179 ], [ 79.974394450000091, 6.911614686000064 ], [ 79.974299532000089, 6.911614527000154 ], [ 79.974196108000058, 6.911614624000038 ], [ 79.974078752000082, 6.911613432000138 ], [ 79.974074155000153, 6.911613449000072 ], [ 79.973963113000195, 6.911613870000167 ], [ 79.97392664900002, 6.91161281400008 ], [ 79.973909756000126, 6.911542888000156 ], [ 79.973889600000064, 6.911422048000134 ], [ 79.973882988000071, 6.911386643000128 ], [ 79.973881171000187, 6.911376913000026 ], [ 79.973872782000115, 6.911307724000096 ], [ 79.973867680000069, 6.911244009000029 ], [ 79.973866757000053, 6.911232483000163 ], [ 79.973860227000046, 6.911133638000081 ], [ 79.973856133000083, 6.911039771 ], [ 79.973851073000162, 6.910945344000083 ], [ 79.973851045000174, 6.910944817000143 ], [ 79.97385253900012, 6.910863530000086 ], [ 79.973853914000131, 6.910799604000147 ], [ 79.973857321000139, 6.910710995000159 ], [ 79.973860504000186, 6.910593901000084 ], [ 79.973862168000096, 6.91057319600003 ], [ 79.973863229000131, 6.91053368300004 ], [ 79.973863416000029, 6.910477441000012 ], [ 79.973862037, 6.910436115000152 ], [ 79.973860470000147, 6.910399310000059 ], [ 79.973859430000061, 6.910372452000161 ], [ 79.973857406000093, 6.910338630000183 ], [ 79.973830946000191, 6.910280497999963 ], [ 79.97383077600017, 6.910272583000108 ], [ 79.973724643000196, 6.910000918000151 ], [ 79.973666921000017, 6.909842585999968 ], [ 79.973639489000107, 6.909821132000161 ], [ 79.973612198000069, 6.909800107000137 ], [ 79.973586080000189, 6.909780984000065 ], [ 79.973564935000127, 6.909764220000056 ], [ 79.973560596000198, 6.909761862000039 ], [ 79.973545404000049, 6.909756139000024 ], [ 79.973575429000107, 6.909711792 ], [ 79.973580420000076, 6.909703572000012 ], [ 79.973582406000048, 6.909694824000042 ], [ 79.973583995000126, 6.909692233999976 ], [ 79.973588395000093, 6.909685068000101 ], [ 79.973591144000068, 6.909672532000116 ], [ 79.973592499000119, 6.909666357000049 ], [ 79.973590522000052, 6.909658397000101 ], [ 79.97357391900016, 6.909647729000142 ], [ 79.97355933900019, 6.909638360000145 ], [ 79.973543166000184, 6.909631182000112 ], [ 79.973535817000197, 6.909627920000162 ], [ 79.973528868000074, 6.909624836000091 ], [ 79.9735087090001, 6.909613770000078 ], [ 79.973492085000146, 6.909598100000039 ], [ 79.973473672000125, 6.909571122000102 ], [ 79.973458074000064, 6.909538091000115 ], [ 79.973447442000065, 6.909511579000025 ], [ 79.973440079000113, 6.909477657000082 ], [ 79.973432177000177, 6.909442469 ], [ 79.973423358000048, 6.909414332999972 ], [ 79.973412897000173, 6.909392523000122 ], [ 79.973412577000147, 6.909392126 ], [ 79.973313817000133, 6.909384478000106 ], [ 79.973028965000196, 6.909265245000086 ], [ 79.972807526000054, 6.909231568000052 ], [ 79.972462966000194, 6.909298496000076 ], [ 79.972147770000049, 6.909428919000163 ], [ 79.971864465000124, 6.909610587999964 ], [ 79.971421201000055, 6.909685250000109 ], [ 79.971397099000171, 6.909694395999963 ], [ 79.971273568000186, 6.909693230000073 ], [ 79.971212123000157, 6.909679962000041 ], [ 79.971124260000067, 6.909643423000148 ], [ 79.971144683000091, 6.909584824000149 ], [ 79.971146507000071, 6.90956996500006 ], [ 79.971153308000169, 6.909514579000131 ], [ 79.971149388000185, 6.909477770000024 ], [ 79.9711311800001, 6.909383065999975 ], [ 79.971120610000128, 6.909336350000046 ], [ 79.97110351300006, 6.909260787000107 ], [ 79.97110064300017, 6.909248103000095 ], [ 79.971098221000148, 6.909236705000069 ], [ 79.971055880999984, 6.909072425000147 ], [ 79.971033286000193, 6.909003574000053 ], [ 79.971011628000156, 6.908931670000129 ], [ 79.970997834000116, 6.908885874000077 ], [ 79.970991754000124, 6.908842457000105 ], [ 79.970983384000135, 6.908782675000111 ], [ 79.970983259000036, 6.908781783000052 ], [ 79.970980594000082, 6.908782164000172 ], [ 79.970715751000114, 6.908795576000045 ], [ 79.970155784000042, 6.908652517 ], [ 79.970115749, 6.908260088000134 ], [ 79.970171851000032, 6.907709597000178 ], [ 79.970183733000169, 6.907455862000063 ], [ 79.970205858000099, 6.907084754999971 ], [ 79.970171776000143, 6.90685967200011 ], [ 79.970115800000144, 6.906809951000184 ], [ 79.970094466000148, 6.906789959000093 ], [ 79.970090919000086, 6.906789253000056 ], [ 79.970083981000073, 6.90678787100012 ], [ 79.970079113, 6.906786901000032 ], [ 79.970015876000048, 6.906774301000041 ], [ 79.969993402000114, 6.90676982400015 ], [ 79.969950736000158, 6.906761323000069 ], [ 79.969899682000175, 6.906720727000049 ], [ 79.969884794, 6.906642576000081 ], [ 79.969869283000037, 6.906558366000013 ], [ 79.969861571000138, 6.906453972000122 ], [ 79.969861233000131, 6.90644939200007 ], [ 79.969837914000038, 6.906327823000083 ], [ 79.969821676000095, 6.906275904000097 ], [ 79.96980155600005, 6.906211568000117 ], [ 79.969789871000046, 6.906172377000189 ], [ 79.969775014000163, 6.906122547000109 ], [ 79.969727442000135, 6.906055281000079 ], [ 79.969657842000061, 6.905959586000051 ], [ 79.969558785000117, 6.905841054 ], [ 79.969480648000172, 6.905763338000156 ], [ 79.96945138600006, 6.905727281000111 ], [ 79.969412384000179, 6.905679219000035 ], [ 79.969322731000148, 6.905617218000145 ], [ 79.969181214000059, 6.90556408100008 ], [ 79.969173314000102, 6.905560948000129 ], [ 79.969084824000106, 6.90552585000006 ], [ 79.968995343000074, 6.905468822000103 ], [ 79.968963903000088, 6.905442682000114 ], [ 79.968902818000117, 6.905391895999969 ], [ 79.968836768000187, 6.905337258999964 ], [ 79.968764830000055, 6.905286048000107 ], [ 79.968675895999979, 6.905280471000083 ], [ 79.968530099000077, 6.905296410000062 ], [ 79.968385245000036, 6.905290969000077 ], [ 79.968328426000198, 6.905288835000079 ], [ 79.968271705000063, 6.905287478000048 ], [ 79.968173706000186, 6.905285136000032 ], [ 79.968156638000039, 6.905284822000169 ], [ 79.968027852000034, 6.90528244800015 ], [ 79.967902446000153, 6.905280064000124 ], [ 79.967803755000034, 6.905265339000096 ], [ 79.967730896000148, 6.905223439000167 ], [ 79.967649903000108, 6.905176644000107 ], [ 79.967561098000147, 6.905147195999973 ], [ 79.967559479000101, 6.905146940000122 ], [ 79.967551417000152, 6.905145664000031 ], [ 79.96743165100014, 6.905126722000091 ], [ 79.967355493000071, 6.905110859000104 ], [ 79.96726860299998, 6.905072009999969 ], [ 79.967221089000134, 6.905026174999989 ], [ 79.967190670000036, 6.904982087000064 ], [ 79.96709051900018, 6.904920701000151 ], [ 79.966996856000151, 6.904874877999987 ], [ 79.966803853000101, 6.904824184000063 ], [ 79.966792085000179, 6.904773618000149 ], [ 79.966803596000148, 6.904740420000053 ], [ 79.966814723000084, 6.904708336000112 ], [ 79.966831821000085, 6.904659028000083 ], [ 79.966851098000177, 6.904603632000146 ], [ 79.966854403000184, 6.904575426000122 ], [ 79.966852428000095, 6.904566109000143 ], [ 79.966850078000107, 6.90456520000015 ], [ 79.966843748000088, 6.904562658000089 ], [ 79.966832910000107, 6.904558197000028 ], [ 79.966832170000032, 6.904557890000092 ], [ 79.96682168600006, 6.904553578000048 ], [ 79.966814991000149, 6.904550739000115 ], [ 79.966813548000118, 6.904550128000153 ], [ 79.966797904000032, 6.904543591000049 ], [ 79.96658094300011, 6.904481644000157 ], [ 79.966464920000192, 6.904495373000145 ], [ 79.966439782000066, 6.904490671000133 ], [ 79.966277800000171, 6.904460375999975 ], [ 79.966220965000161, 6.904449746000182 ], [ 79.965980356000102, 6.904405662000102 ], [ 79.965936174000149, 6.90439103500006 ], [ 79.965868828000112, 6.90436873900012 ], [ 79.965861494000194, 6.904367686000171 ], [ 79.965830034000078, 6.904369419000034 ], [ 79.965712213000188, 6.904376995000121 ], [ 79.965607092000084, 6.904365423000058 ], [ 79.965571270000169, 6.904378049 ], [ 79.965540457000031, 6.904388910000137 ], [ 79.965390708000143, 6.904442186000097 ], [ 79.965360113000031, 6.904460037000035 ], [ 79.96526508200003, 6.904515486000093 ], [ 79.965170883000155, 6.904627633000075 ], [ 79.965139428000157, 6.904604701000153 ], [ 79.964533760000108, 6.905436628000132 ], [ 79.964510446000133, 6.905609883000182 ], [ 79.964466999000194, 6.906280547000051 ], [ 79.964453455000125, 6.906269855000062 ], [ 79.964430494999988, 6.906251730000065 ], [ 79.964307856000062, 6.906179828000177 ], [ 79.964267155000186, 6.906155964000163 ], [ 79.964097030000062, 6.906071314000087 ], [ 79.964041771000154, 6.906043817000182 ], [ 79.964037087000122, 6.906041492999975 ], [ 79.964033544000131, 6.906039734000103 ], [ 79.964007504000108, 6.906028116000016 ], [ 79.963751814000091, 6.905913656000166 ], [ 79.963693609000131, 6.905886877000171 ], [ 79.963550014000077, 6.905820810000137 ], [ 79.963531842000179, 6.905811540000059 ], [ 79.963489715000151, 6.905790053000146 ], [ 79.963414818000103, 6.905751487000146 ], [ 79.963400034000074, 6.905743875000041 ], [ 79.963345248000167, 6.90571951600009 ], [ 79.9633418680001, 6.905718014000115 ], [ 79.963353319000078, 6.90569438700004 ], [ 79.963851889000068, 6.904665639000029 ], [ 79.964825547000032, 6.90257771 ], [ 79.966534232000072, 6.899088619000054 ], [ 79.966588618000117, 6.89817574500006 ], [ 79.966590665000012, 6.898141397000018 ], [ 79.966681569000116, 6.898177736000093 ], [ 79.966715504000149, 6.898191301000054 ], [ 79.96675329500016, 6.898209179000162 ], [ 79.966784033000067, 6.898219251000057 ], [ 79.966819329000145, 6.898230818000059 ], [ 79.966822356000137, 6.898231810000141 ], [ 79.967079728000101, 6.897861307000142 ], [ 79.967522433000056, 6.897474049000039 ], [ 79.968101407000177, 6.896916085999976 ], [ 79.968501519000029, 6.896936815 ], [ 79.969290188, 6.8966910850001 ], [ 79.970141046000094, 6.896452718000035 ], [ 79.970708966000188, 6.896340628000189 ], [ 79.97147038200012, 6.895856128000048 ], [ 79.971843671000158, 6.895744526000044 ], [ 79.972208962000138, 6.895783302000041 ], [ 79.972646594000082, 6.895788159 ], [ 79.973029477000068, 6.895743971000115 ], [ 79.973111571000118, 6.895504415000175 ], [ 79.973511558000041, 6.895568409000134 ], [ 79.97347982000008, 6.895564414999967 ], [ 79.973777602000041, 6.895633883000016 ], [ 79.973900207000156, 6.895629143000178 ], [ 79.975208472000133, 6.895608389000074 ], [ 79.975513419000038, 6.895708492999972 ], [ 79.976061303000108, 6.895897404000095 ], [ 79.976584604000152, 6.895971399000075 ], [ 79.976894571000116, 6.89599434500019 ], [ 79.977180345000136, 6.895954171000085 ], [ 79.977714206000144, 6.895813893000025 ], [ 79.978041381000139, 6.895638353000038 ], [ 79.978508975000125, 6.89544380000001 ], [ 79.978671980000172, 6.895320865000087 ], [ 79.978679856000099, 6.895355023000036 ], [ 79.978807630000063, 6.895976174000054 ], [ 79.978907413000059, 6.896514651000075 ], [ 79.97895782, 6.896786672000133 ], [ 79.979062881000118, 6.897396427000047 ], [ 79.979172320000032, 6.898095156000011 ], [ 79.979223433000072, 6.898421493000114 ], [ 79.979248834000146, 6.898583667000025 ], [ 79.979310227000155, 6.899013550000177 ], [ 79.979448609000031, 6.900089063000053 ], [ 79.979487599000095, 6.90049758400005 ], [ 79.979645950000133, 6.902156660000173 ], [ 79.97973929900013, 6.902974635000078 ], [ 79.979851636000092, 6.90376614000013 ], [ 79.979971638000052, 6.904504649000046 ], [ 79.980099244000144, 6.905228028000124 ], [ 79.980207263000125, 6.905729125000107 ], [ 79.980259237000155, 6.90597023600003 ], [ 79.980260904000033, 6.905977967000069 ], [ 79.980452710000066, 6.906826395999985 ], [ 79.980678979000061, 6.907698286000027 ], [ 79.980783983000038, 6.908102900000131 ], [ 79.980856262000088, 6.908340860000067 ], [ 79.981036448000054, 6.908934069000054 ], [ 79.981097441000031, 6.909134872000038 ], [ 79.981126871000185, 6.909231762000104 ], [ 79.981276028000195, 6.909689803000049 ], [ 79.981284048000134, 6.909714430000065 ], [ 79.981284719000087, 6.909716491000154 ], [ 79.981281201000172, 6.909717249000039 ], [ 79.981296160000056, 6.909786545999964 ], [ 79.981333423000194, 6.909936565000066 ], [ 79.981410821000054, 6.910166185000037 ], [ 79.981445412000141, 6.910268800999972 ], [ 79.981470479000166, 6.910340877000124 ], [ 79.981481985000073, 6.910373967000169 ], [ 79.981511116000092, 6.910457744999974 ] ] ] } },
{ "type": "Feature", "properties": { "adm4_name": "Malabe West", "adm4_name1": "මාලඹේ බටහිර", "adm4_name2": null, "adm4_name3": null, "adm4_pcode": "LK1109130", "adm3_name": "Kaduwela", "adm3_name1": "කඩුවෙල", "adm3_name2": "கடுவெலை", "adm3_name3": null, "adm3_pcode": "LK1109", "adm2_name": "Colombo", "adm2_name1": "කොළඹ දිස්ත්‍රික්ක", "adm2_name2": "கொழும்பு மாவட்டம்", "adm2_name3": null, "adm2_pcode": "LK11", "adm1_name": "Western", "adm1_name1": "බස්නාහිර පළාත", "adm1_name2": "மேல் மாகாணம்", "adm1_name3": null, "adm1_pcode": "LK1", "adm0_name": "Sri Lanka", "adm0_name1": "ශ්‍රී ලංකා", "adm0_name2": "இலங்கை", "adm0_name3": null, "adm0_pcode": "LK", "valid_on": "2022-08-16", "valid_to": null, "area_sqkm": 1.42046452, "version": "v03", "lang": "en", "lang1": "si", "lang2": "ta", "lang3": null, "adm4_ref": "None", "center_lat": 6.9019775, "center_lon": 79.96068983000001 }, "geometry": { "type": "Polygon", "coordinates": [ [ [ 79.959765071000163, 6.911950338000111 ], [ 79.959458093000194, 6.912065035000126 ], [ 79.959419363000166, 6.911867876000031 ], [ 79.959173114000123, 6.911754017000135 ], [ 79.958879038000134, 6.911524702000065 ], [ 79.958585989000142, 6.911269336000089 ], [ 79.958286345000033, 6.911096850000035 ], [ 79.958120461000135, 6.91095728800002 ], [ 79.957829039000046, 6.910679385000037 ], [ 79.957503908000035, 6.910405562000051 ], [ 79.957467386000019, 6.910381147000066 ], [ 79.957077231000198, 6.910191928000131 ], [ 79.956718037000144, 6.91014059500003 ], [ 79.956258798000022, 6.910002040000052 ], [ 79.956149995000033, 6.909949324000138 ], [ 79.95675068100013, 6.909113568000066 ], [ 79.957127674000162, 6.909154332000071 ], [ 79.957385330000193, 6.909038446000068 ], [ 79.957570668000074, 6.908972659000028 ], [ 79.957842615000061, 6.908598669000185 ], [ 79.958115081000074, 6.908406199000069 ], [ 79.958117799000092, 6.908281485000032 ], [ 79.95795575000011, 6.907956690000105 ], [ 79.957689592000122, 6.907423135999977 ], [ 79.957581587000163, 6.906993374000137 ], [ 79.95814840900016, 6.906770300000176 ], [ 79.957885647000069, 6.905766019000112 ], [ 79.957696682000176, 6.905379776000018 ], [ 79.957382570000107, 6.905387047000033 ], [ 79.957125075000022, 6.905364816000031 ], [ 79.957116652000138, 6.905366997000158 ], [ 79.957116322000104, 6.905363340000122 ], [ 79.957110951000118, 6.905303899000046 ], [ 79.95710592100005, 6.905248257999972 ], [ 79.957104480000055, 6.905232305000027 ], [ 79.957100916000115, 6.905192874000022 ], [ 79.957090887000049, 6.905081901000187 ], [ 79.957088937000094, 6.905060322000054 ], [ 79.95708511600003, 6.90502025800015 ], [ 79.95707102700004, 6.90500468099998 ], [ 79.957021970000142, 6.904908296000087 ], [ 79.956979154000123, 6.904827447000059 ], [ 79.956948014000034, 6.904768646000093 ], [ 79.956912491000026, 6.904705370000045 ], [ 79.956894612000099, 6.904673519000141 ], [ 79.956868449000126, 6.904626978000124 ], [ 79.956846533000089, 6.904587987000184 ], [ 79.956822456000168, 6.904539839999984 ], [ 79.956775493000066, 6.904436858 ], [ 79.956765132000044, 6.904411251000113 ], [ 79.956755578000127, 6.90438398200007 ], [ 79.956715006000138, 6.90426817000008 ], [ 79.956714259000137, 6.904266034999978 ], [ 79.956681649000132, 6.90416868900013 ], [ 79.95666876700011, 6.904130233000103 ], [ 79.956656825000039, 6.904094583000187 ], [ 79.956625936000023, 6.903997941 ], [ 79.956622356000082, 6.90398674000005 ], [ 79.956613705, 6.903966923000098 ], [ 79.956600300000048, 6.903952475000153 ], [ 79.956587151000122, 6.903938304000121 ], [ 79.95650115, 6.903840400000036 ], [ 79.956474269000182, 6.903809799000101 ], [ 79.956426233000116, 6.903751935000116 ], [ 79.956230158000153, 6.903804135000144 ], [ 79.956189975000143, 6.903812868000045 ], [ 79.956121598000038, 6.903827730000046 ], [ 79.956054736000056, 6.903842262000182 ], [ 79.955980477000196, 6.903853767000157 ], [ 79.955898772000126, 6.903866424000057 ], [ 79.955611977999979, 6.903910855999982 ], [ 79.955514497000195, 6.903923143000043 ], [ 79.955508572000156, 6.903765146000012 ], [ 79.955671449000192, 6.903560486000174 ], [ 79.955803765000155, 6.903464536 ], [ 79.955877222000083, 6.903348391000122 ], [ 79.955899172000159, 6.903114447000121 ], [ 79.955955342000152, 6.903026979000174 ], [ 79.95605327800007, 6.902876424000056 ], [ 79.956163027, 6.90255449600005 ], [ 79.956077422000135, 6.902476976 ], [ 79.956013416000189, 6.902436521000141 ], [ 79.955999437000173, 6.902426316000117 ], [ 79.956006164000087, 6.902414670000041 ], [ 79.956079267, 6.902294881000159 ], [ 79.956116138000141, 6.902234465000106 ], [ 79.956155942000066, 6.902162834000137 ], [ 79.956194751000169, 6.902092994000043 ], [ 79.956226324, 6.902036176000138 ], [ 79.956294027000013, 6.901918832000035 ], [ 79.956314278000036, 6.901886509000121 ], [ 79.956129377000082, 6.901771278000069 ], [ 79.956090504000144, 6.901736221000135 ], [ 79.956068115000164, 6.901719726000067 ], [ 79.956332111000165, 6.901318074000073 ], [ 79.956228481000096, 6.901218659000108 ], [ 79.956858298999975, 6.900273739000056 ], [ 79.956875621, 6.900287916000082 ], [ 79.956968802000176, 6.900364171000092 ], [ 79.956983446000152, 6.900372787000094 ], [ 79.957033532000196, 6.900398547000123 ], [ 79.957104454000046, 6.90030056500018 ], [ 79.957117358, 6.900257710000062 ], [ 79.957030009000164, 6.900160859000152 ], [ 79.957262013, 6.899747418000118 ], [ 79.957245711000098, 6.899738557000035 ], [ 79.957206163000194, 6.899717059000011 ], [ 79.957169600999976, 6.899698041000022 ], [ 79.957109998000135, 6.899667036000039 ], [ 79.957300856000131, 6.899218296000072 ], [ 79.957553485000119, 6.899322084000119 ], [ 79.957775944000161, 6.898837631000106 ], [ 79.957802296000011, 6.898851467000156 ], [ 79.957852297000159, 6.898878712 ], [ 79.957934925000075, 6.89872928200009 ], [ 79.957872749999979, 6.898688983000056 ], [ 79.958078596000178, 6.898358325000061 ], [ 79.958081726000046, 6.89828698000008 ], [ 79.958125000999985, 6.898193921000143 ], [ 79.958161759, 6.898145662000104 ], [ 79.958055921000152, 6.898052545000155 ], [ 79.9580811350001, 6.897978699000078 ], [ 79.958191379000141, 6.897998810000047 ], [ 79.958274429000085, 6.898038855000095 ], [ 79.958308393000095, 6.898017099000072 ], [ 79.958308932000193, 6.897911841000052 ], [ 79.958253749000164, 6.897831779000171 ], [ 79.958330654000065, 6.897604945000069 ], [ 79.958344299000032, 6.897482938000167 ], [ 79.95835054500003, 6.897321990000023 ], [ 79.958626780000031, 6.897060250000038 ], [ 79.958891732000097, 6.89667791200003 ], [ 79.959104527000022, 6.896419607000041 ], [ 79.959092026000178, 6.896412002000034 ], [ 79.959087071, 6.896408987000029 ], [ 79.959064562000037, 6.896397013000126 ], [ 79.959054785000035, 6.896393405000026 ], [ 79.95912946500016, 6.89630434999998 ], [ 79.959179336000091, 6.896317672000066 ], [ 79.959293683000055, 6.896172606000107 ], [ 79.959333889, 6.896117411000091 ], [ 79.959385774000111, 6.896144422000077 ], [ 79.959734758000081, 6.895591842000044 ], [ 79.95972611600007, 6.895586929000046 ], [ 79.959673573000032, 6.895498472000099 ], [ 79.959873698000195, 6.895297368000172 ], [ 79.959967689000052, 6.895179352000184 ], [ 79.960073053000087, 6.895229240000049 ], [ 79.960170406000032, 6.895314859000109 ], [ 79.960241213000131, 6.89535818700017 ], [ 79.960288421000143, 6.895379789000174 ], [ 79.960366411000166, 6.895271065000031 ], [ 79.960255392000136, 6.895095031000039 ], [ 79.960414406000154, 6.894928889000141 ], [ 79.960394650000126, 6.894908341000075 ], [ 79.960438957000122, 6.894859199000052 ], [ 79.96040140600013, 6.894813799000019 ], [ 79.960422487000187, 6.894768670000133 ], [ 79.960400870000115, 6.894737966000093 ], [ 79.960494298000185, 6.894539806000012 ], [ 79.960529871, 6.894507113000088 ], [ 79.960522050000179, 6.894456006000041 ], [ 79.960538713000062, 6.894311370000139 ], [ 79.960688813000047, 6.894050248000042 ], [ 79.960876087000088, 6.893791623000027 ], [ 79.961023090000083, 6.893617568000082 ], [ 79.961261558000103, 6.893235379000032 ], [ 79.961504771000023, 6.892911775000073 ], [ 79.961686388000089, 6.892575948000058 ], [ 79.961915366000198, 6.892332168000166 ], [ 79.961996449000026, 6.892194148000101 ], [ 79.962097615000062, 6.892075944000112 ], [ 79.962173808000045, 6.891996060000054 ], [ 79.962215539000056, 6.892058261000159 ], [ 79.962327369000093, 6.892179031000182 ], [ 79.962589827000102, 6.892413461000046 ], [ 79.96295694600019, 6.892725935000158 ], [ 79.962971167000035, 6.892743996000092 ], [ 79.964221814000041, 6.89433240000011 ], [ 79.964243473000181, 6.894354936000184 ], [ 79.964641305000043, 6.894870774000026 ], [ 79.965028017000066, 6.895093222000185 ], [ 79.965156985000078, 6.895141282000054 ], [ 79.965634938999983, 6.895436777999976 ], [ 79.966080233000071, 6.895714600000076 ], [ 79.966300813000032, 6.895941974000038 ], [ 79.966459238000084, 6.896282340000141 ], [ 79.96650801200002, 6.896802397000101 ], [ 79.966534446000082, 6.897327115000166 ], [ 79.966586314000097, 6.89813965999997 ], [ 79.966587812000057, 6.898140258000012 ], [ 79.966590665000012, 6.898141397000018 ], [ 79.966588618000117, 6.89817574500006 ], [ 79.966534232000072, 6.899088619000054 ], [ 79.964825547000032, 6.90257771 ], [ 79.963851889000068, 6.904665639000029 ], [ 79.963353319000078, 6.90569438700004 ], [ 79.9633418680001, 6.905718014000115 ], [ 79.963265680000177, 6.905875221000088 ], [ 79.962785288000021, 6.906802673000072 ], [ 79.962262316000135, 6.907615660000147 ], [ 79.96175540500019, 6.908368897000173 ], [ 79.961398299000109, 6.908877399000176 ], [ 79.960937604000094, 6.909483336000108 ], [ 79.960582425000098, 6.909984185999974 ], [ 79.960309706000032, 6.91042393000015 ], [ 79.960010018999981, 6.910953584000083 ], [ 79.959844201000124, 6.911598304000108 ], [ 79.959765071000163, 6.911950338000111 ] ] ] } }
]
}
